ONEWEB-0647             
1 56079U 23043AK  24113.90927271  .00000112  00000+0  26264-3 0  9993
2 56079  87.9040  55.5013 0001643  70.9917 289.1391 13.15547383 53172
ONEWEB-0651             
1 56080U 23043AL  24113.90452387  .00000160  00000+0  39177-3 0  9996
2 56080  87.9041  55.4772 0001902  67.4563 292.6768 13.15548371 54370
ONEWEB-0718             
1 56081U 23043AM  24113.89977986  .00000143  00000+0  34620-3 0  9991
2 56081  87.9040  55.4655 0002503  86.3415 273.8001 13.15549046 53183
GSLV R/B                
1 56082U 23043AN  24113.68039631  .00234969  00000+0  13914-2 0  9992
2 56082  87.4059   0.8626 0006092 263.8218  96.2363 15.77420752 60976
ONEWEB-0561             
1 56710U 23068A   24113.90335742  .00019165  00000+0  46864-1 0  9992
2 56710  87.9228  70.7178 0001927 115.2366 244.8967 13.20974361 45847
ONEWEB-0668             
1 56711U 23068B   24113.80004594  .00000182  00000+0  44247-3 0  9994
2 56711  87.9140  25.1099 0002517  80.8628 279.2787 13.16591993 48432
ONEWEB-0676             
1 56712U 23068C   24113.77473149  .00000080  00000+0  17564-3 0  9996
2 56712  87.9145  25.1134 0001550  64.9427 295.1865 13.16595037 48352
ONEWEB-0677             
1 56713U 23068D   24113.90078240  .00000039  00000+0  52417-4 0  9996
2 56713  88.3253  69.4585 0001893  65.3528 294.7811 13.34784177 46074
